IRIDIUM 8 [+]           
1 24792U 97020A   17286.49413270 -.00000049  00000-0 -24452-4 0  9992
2 24792  86.3920 269.2060 0002247  85.2139 274.9313 14.34215968 69920
IRIDIUM 7 [+]           
1 24793U 97020B   17286.55706082  .00000095  00000-0  27026-4 0  9995
2 24793  86.3928 269.4714 0002298  92.3613 267.7846 14.34230381 69937
IRIDIUM 6 [+]           
1 24794U 97020C   17286.48148472 -.00000074  00000-0 -33464-4 0  9993
2 24794  86.3922 269.4298 0002136  84.1981 275.9458 14.34214039 69917
IRIDIUM 5 [+]           
1 24795U 97020D   17286.54488178 -.00000112  00000-0 -47197-4 0  9992
2 24795  86.3914 269.4186 0002065  84.9422 275.2009 14.34212850 70202
IRIDIUM 4 [-]           
1 24796U 97020E   17286.54744333  .00000132  00000-0  39306-4 0  9994
2 24796  86.3921 268.2653 0002266  88.7291  50.3421 14.35180910 70242
IRIDIUM 914 [-]         
1 24836U 97030A   17286.56351689  .00000144  00000-0  40489-4 0  9997
2 24836  86.3893 284.7097 0003912  87.8225 272.3421 14.38782533203860
IRIDIUM 12 [+]          
1 24837U 97030B   17286.58304705 -.00000039  00000-0 -20880-4 0  9995
2 24837  86.3917 300.5908 0002173  89.0988  24.7127 14.34218543 63636
IRIDIUM 10 [+]          
1 24839U 97030D   17286.57124198 -.00000058  00000-0 -27782-4 0  9991
2 24839  86.3916 300.5747 0002176  89.0470  29.2280 14.34217760 63907
IRIDIUM 13 [+]          
1 24840U 97030E   17286.56738304 -.00000044  00000-0 -22843-4 0  9990
2 24840  86.3925 300.7041 0001321  86.9573 273.1774 14.34217435 63940
IRIDIUM 16 [-]          
1 24841U 97030F   17286.60023805  .00000132  00000-0  38083-4 0  9998
2 24841  86.3999 300.4165 0000506 190.3825 169.7362 14.36740830 64328
IRIDIUM 911 [-]         
1 24842U 97030G   17286.52597133  .00000157  00000-0  39261-4 0  9996
2 24842  86.4426 301.1622 0016425  62.7218 297.5655 14.44987061 70045
IRIDIUM 15 [+]          
1 24869U 97034A   17286.55242521  .00000119  00000-0  32363-4 0  9994
2 24869  86.4189 332.5672 0002055  85.5014 274.6419 14.38608392 60687
IRIDIUM 17 [-]          
1 24870U 97034B   17286.57804125  .00000103  00000-0  28774-4 0  9996
2 24870  86.3965 330.5763 0002697 134.6243 225.5174 14.35779072 61169
IRIDIUM 920 [-]         
1 24871U 97034C   17286.61527011  .00000125  00000-0  33789-4 0  9994
2 24871  86.3956 316.4580 0010108 318.8963  41.1473 14.39492206 63128
IRIDIUM 18 [+]          
1 24872U 97034D   17286.61566488  .00000125  00000-0  34363-4 0  9995
2 24872  86.4215 332.5707 0001908  79.4511 280.6902 14.38608180 60915
IRIDIUM 921 [-]         
1 24873U 97034E   17286.35416158  .00000980  00000-0  55699-4 0  9999
2 24873  86.3977  10.1192 0005636 313.0064  47.0701 15.11592458105946
IRIDIUM 26 [-]          
1 24903U 97043A   17286.39969335  .00000134  00000-0  39979-4 0  9991
2 24903  86.4022 205.3059 0001992  81.2961 278.8461 14.35278206 54928
IRIDIUM 25 [+]          
1 24904U 97043B   17286.39858235  .00000187  00000-0  59645-4 0  9998
2 24904  86.4012 206.0084 0002081  78.0617 282.0812 14.34219893 54772
IRIDIUM 46 [+]          
1 24905U 97043C   17286.34151107  .00000018  00000-0 -45848-6 0  9994
2 24905  86.4042 206.0291 0002012  62.6344 297.5057 14.34222003 54764
IRIDIUM 23 [+]          
1 24906U 97043D   17286.36213817  .00000211  00000-0  68116-4 0  9999
2 24906  86.4026 206.0918 0002199  76.1832  63.1618 14.34224306 54770
IRIDIUM 22 [+]          
1 24907U 97043E   17286.37955948  .00000218  00000-0  70662-4 0  9995
2 24907  86.4022 206.6993 0002163  79.8472 280.2968 14.34222072 54775
DUMMY MASS 1 [-]        
1 24925U 97048A   17286.56577355  .00000094  00000-0  76626-5 0  9992
2 24925  86.3379 348.8410 0006755   4.0467 356.0810 14.85150129 88917
DUMMY MASS 2 [-]        
1 24926U 97048B   17286.55535051  .00000084  00000-0  66128-5 0  9994
2 24926  86.3381 349.9808 0007850   9.8238 350.3138 14.84918102 88990
IRIDIUM 29 [-]          
1 24944U 97051A   17286.47638178  .00000118  00000-0  34843-4 0  9999
2 24944  86.3975 237.3724 0002415  85.0007 275.1464 14.34626348 51177
IRIDIUM 32 [+]          
1 24945U 97051B   17286.54783577  .00000146  00000-0  44948-4 0  9990
2 24945  86.3970 237.5895 0002308  81.8772 278.2685 14.34214129 51380
IRIDIUM 33 [-]          
1 24946U 97051C   17286.28533588  .00000125  00000-0  38034-4 0  9993
2 24946  86.3889 237.2753 0006598 204.7057 155.3823 14.33571990 50959
IRIDIUM 28 [-]          
1 24948U 97051E   17286.48350601  .00000137  00000-0  40798-4 0  9993
2 24948  86.3981 236.5312 0001890  86.3397 273.8016 14.35573518 51487
IRIDIUM 30 [-]          
1 24949U 97051F   17271.33813138  .24952974 -19063-5  38201-3 0  9992
2 24949  86.3452 238.9858 0025131 154.2013 206.3664 16.46254047 49862
IRIDIUM 31 [+]          
1 24950U 97051G   17286.52391715  .00000027  00000-0  23733-5 0  9991
2 24950  86.4227 237.6986 0002201  76.4887 283.6557 14.38593352 51473
IRIDIUM 19 [+]          
1 24965U 97056A   17286.51950355 -.00000030  00000-0 -17690-4 0  9992
2 24965  86.3920 269.2075 0002189  84.6025 275.5421 14.34216790 49514
IRIDIUM 35 [+]          
1 24966U 97056B   17286.53218810 -.00000031  00000-0 -18030-4 0  9998
2 24966  86.3920 269.1952 0002191  84.2080 275.9365 14.34216315 49219
IRIDIUM 36 [-]          
1 24967U 97056C   17286.55372924  .00000169  00000-0  51717-4 0  9997
2 24967  86.3936 268.1493 0002332  92.6948 267.4516 14.35625060 49844
IRIDIUM 37 [+]          
1 24968U 97056D   17286.50680662 -.00000033  00000-0 -18776-4 0  9994
2 24968  86.3922 269.3958 0002228  84.8790 275.2660 14.34216659 49285
IRIDIUM 34 [+]          
1 24969U 97056E   17286.52583887 -.00000032  00000-0 -18536-4 0  9991
2 24969  86.3922 269.3248 0002190  85.8333 274.3114 14.34216377 49506
IRIDIUM 43 [-]          
1 25039U 97069A   17286.60872609  .00129478  31617-5  57359-3 0  9998
2 25039  86.3939 321.0857 0218935 306.9933  51.1465 15.56734771 44899
IRIDIUM 41 [+]          
1 25040U 97069B   17286.57723334  .00000125  00000-0  37409-4 0  9995
2 25040  86.3965 332.4803 0002079  92.3347 267.8087 14.34224825 42985
IRIDIUM 40 [-]          
1 25041U 97069C   17286.59917513  .00066416 -19467-6  53811-3 0  9995
2 25041  86.3837 319.2743 0241456 185.7850 174.0612 15.41139694 45119
IRIDIUM 39 [B]          
1 25042U 97069D   17286.61190773  .00000153  00000-0  37025-4 0  9992
2 25042  86.3919 328.6969 0016754 280.0696  79.8616 14.46187431 43573
IRIDIUM 38 [-]          
1 25043U 97069E   17286.60682978  .00000129  00000-0  37687-4 0  9992
2 25043  86.3962 329.5034 0000953 121.1989 238.9301 14.36053933 43464
IRIDIUM 42 [-]          
1 25077U 97077A   17286.56165903  .00000132  00000-0  39872-4 0  9999
2 25077  86.3973 332.4199 0001749  95.7241 264.4155 14.34504038 39156
IRIDIUM 44 [-]          
1 25078U 97077B   17286.56822456  .00000112  00000-0  30457-4 0  9991
2 25078  86.3951 321.6938 0001250 145.0989 215.0292 14.38149411 40610
IRIDIUM 45 [+]          
1 25104U 97082A   17286.45904521  .00000157  00000-0  49003-4 0  9995
2 25104  86.3967 237.7490 0001299  74.5239 285.6100 14.34219378 37325
IRIDIUM 24 [-]          
1 25105U 97082B   17286.32346388  .00000142  00000-0  39020-4 0  9995
2 25105  86.3973 185.5925 0010414 325.2306  34.8211 14.39880683 39851
IRIDIUM 47 [+]          
1 25106U 97082C   17286.41763248  .00000209  00000-0  67581-4 0  9991
2 25106  86.4010 205.8683 0002204  76.6487 283.4954 14.34221459 37317
IRIDIUM 49 [+]          
1 25108U 97082E   17286.38736053  .00000217  00000-0  70315-4 0  9991
2 25108  86.4012 205.9866 0002153  78.1762  60.3441 14.34221800 37314
IRIDIUM 52 [+]          
1 25169U 98010A   17286.52929684 -.00000276  00000-0 -10550-3 0  9991
2 25169  86.3921 300.9160 0002191  89.1588 270.9859 14.34217157 28460
IRIDIUM 56 [+]          
1 25170U 98010B   17286.52296250  .00000015  00000-0 -16570-5 0  9999
2 25170  86.3917 301.0335 0001858  90.3866 269.7543 14.34218917 28646
IRIDIUM 54 [+]          
1 25171U 98010C   17286.55468809 -.00000078  00000-0 -34968-4 0  9994
2 25171  86.3922 300.9273 0002187  89.3764 270.7682 14.34217625 28914
IRIDIUM 50 [+]          
1 25172U 98010D   17286.51661708 -.00000091  00000-0 -39710-4 0  9999
2 25172  86.3922 300.8987 0002252  88.8520 271.2934 14.34217508 28447
IRIDIUM 53 [+]          
1 25173U 98010E   17286.53565804 -.00000027  00000-0 -16661-4 0  9991
2 25173  86.3922 300.8976 0002167  89.8039 270.3405 14.34217747 28467
IRIDIUM 51 [S]          
1 25262U 98018A   17286.48778483 -.00000009  00000-0 -10131-4 0  9997
2 25262  86.3922 269.5712 0002424  73.1677 286.9784 14.34216952 27879
IRIDIUM 61 [+]          
1 25263U 98018B   17286.51316025 -.00000024  00000-0 -15563-4 0  9993
2 25263  86.3922 269.3584 0002195  84.0933 276.0513 14.34215762 23599
IRIDIUM 55 [+]          
1 25272U 98019A   17286.46073678  .00000165  00000-0  47516-4 0  9999
2 25272  86.4226 237.5344 0002408  74.0785 286.0678 14.38595116 23039
IRIDIUM 57 [-]          
1 25273U 98019B   17286.47850996  .00000131  00000-0  39665-4 0  9996
2 25273  86.3977 237.8429 0002344  86.5437 273.6026 14.34282503 22802
IRIDIUM 58 [+]          
1 25274U 98019C   17286.53650145  .00000160  00000-0  45886-4 0  9992
2 25274  86.4225 238.0120 0002402  76.5791 283.5674 14.38592466 22847
IRIDIUM 59 [+]          
1 25275U 98019D   17286.43367377  .00000083  00000-0  22575-4 0  9998
2 25275  86.3972 237.9053 0002353  81.9447 278.2015 14.34217135 23015
IRIDIUM 60 [+]          
1 25276U 98019E   17286.44004554  .00000145  00000-0  44823-4 0  9994
2 25276  86.3967 237.5178 0002234  83.2656 276.8793 14.34219011 23011
IRIDIUM 62 [+]          
1 25285U 98021A   17286.61082661  .00000178  00000-0  56340-4 0  9994
2 25285  86.4008 174.4401 0002093  78.2688 281.8743 14.34216839 22002
IRIDIUM 63 [-]          
1 25286U 98021B   17286.45597203  .00000115  00000-0  33620-4 0  9997
2 25286  86.4038 174.9198 0002217  82.5432  21.5264 14.34686764 22002
